TEVEL2-3                
1 63218U 25052J   26157.66952974  .00022034  00000+0  68010-3 0  9991
2 63218  97.3885  53.6386 0004184 134.1860 225.9727 15.33568561 68486
TEVEL2-2                
1 63219U 25052K   26157.67488653  .00021712  00000+0  67117-3 0  9990
2 63219  97.3886  53.6255 0004082 135.2469 224.9104 15.33523314 68482
TEVEL2-9                
1 63237U 25052AD  26157.96549887  .00018966  00000+0  62312-3 0  9998
2 63237  97.3947  53.3128 0006751 159.7862 200.3648 15.31584398 68465
TEVEL2-7                
1 63238U 25052AE  26157.67773882  .00018936  00000+0  62791-3 0  9999
2 63238  97.3947  52.9464 0006821 161.8980 198.2506 15.31287238 68413
TEVEL2-8                
1 63239U 25052AF  26157.94726947  .00018419  00000+0  61101-3 0  9990
2 63239  97.3945  53.1926 0006836 161.4013 198.7479 15.31279779 68456
INNOSAT 16 (RS92S7)     
1 64878U 25155C   26157.96545868  .00006502  00000+0  26045-3 0  9995
2 64878  97.4560 125.1272 0009373 212.7366 147.3292 15.25349113 79115
GEOSCAN 6 (RS92S6)      
1 64879U 25155D   26157.91389777  .00011809  00000+0  40933-3 0  9994
2 64879  97.4555 126.4279 0006968 197.7794 162.3203 15.29958853 79193
GEOSCAN 1 (RS92S1)      
1 64880U 25155E   26157.92028890  .00012849  00000+0  43721-3 0  9996
2 64880  97.4551 126.5735 0006910 197.7317 162.3684 15.30539298 79202
239ALFEROV (RS61S)      
1 64881U 25155F   26157.90438679  .00016433  00000+0  52259-3 0  9994
2 64881  97.4553 127.0848 0006565 194.0220 166.0841 15.32665638 79234
GEOSCAN 2 (RS92S2)      
1 64890U 25155Q   26157.91579210  .00012468  00000+0  42081-3 0  9998
2 64890  97.4550 126.7173 0006779 182.3043 177.8167 15.30811245 79212
GEOSCAN 5 (RS92S5)      
1 64891U 25155R   26157.96081954  .00015688  00000+0  49422-3 0  9990
2 64891  97.4544 127.2754 0005228 196.8676 163.2393 15.32985660 79256
GEOSCAN 4 (RS92S4)      
1 64892U 25155S   26157.94601867  .00016556  00000+0  51893-3 0  9990
2 64892  97.4548 127.3060 0005282 197.5552 162.5509 15.33133854 79255
GEOSCAN 3 (RS92S3)      
1 64893U 25155T   26157.95979167  .00019702  00000+0  58062-3 0  9994
2 64893  97.4536 127.7206 0005177 194.8402 165.2690 15.35054153 79286
INNOSAT 3 (RS92S0)      
1 64894U 25155U   26157.93967306  .00041418  00000+0  93435-3 0  9997
2 64894  97.4487 129.1963 0004607 178.5380 181.5881 15.43107567 79380
KNACKSAT-2              
1 67683U 98067XZ  26157.26456592  .00064955  00000+0  81733-3 0  9993
2 67683  51.6302 349.3788 0010533 167.5745 192.5509 15.58973490 18571
